[{"OBJECT_NAME":"STARLINK-31512","OBJECT_ID":"2024-071S","EPOCH":"2026-03-09T23:12:34.001280","MEAN_MOTION":15.27591415,"ECCENTRICITY":0.0001473,"INCLINATION":43.0022,"RA_OF_ASC_NODE":298.0292,"ARG_OF_PERICENTER":263.0766,"MEAN_ANOMALY":96.9918,"EPHEMERIS_TYPE":0,"CLASSIFICATION_TYPE":"U","NORAD_CAT_ID":59500,"ELEMENT_SET_NO":999,"REV_AT_EPOCH":10870,"BSTAR":-0.00010707348,"MEAN_MOTION_DOT":-3.208e-5,"MEAN_MOTION_DDOT":0},{"OBJECT_NAME":"FENGYUN 1C DEB","OBJECT_ID":"1999-025EJQ","EPOCH":"2026-03-08T21:27:56.444256","MEAN_MOTION":15.23229897,"ECCENTRICITY":0.00101559,"INCLINATION":98.6645,"RA_OF_ASC_NODE":227.592,"ARG_OF_PERICENTER":263.6857,"MEAN_ANOMALY":96.3219,"EPHEMERIS_TYPE":0,"CLASSIFICATION_TYPE":"U","NORAD_CAT_ID":37470,"ELEMENT_SET_NO":999,"REV_AT_EPOCH":66762,"BSTAR":0.011057202,"MEAN_MOTION_DOT":0.00271626,"MEAN_MOTION_DDOT":0}]
